QIANFAN-65              
1 62795U 25016L   25251.18705798  .00000100  00000+0  13701-3 0  9998
2 62795  88.9770 112.9472 0012059 259.9731 100.0059 13.50967709 34345
QIANFAN-66              
1 62796U 25016M   25251.21584672  .00000100  00000+0  13596-3 0  9991
2 62796  88.9789 112.8955 0013176 254.7983 105.1711 13.50962941 34393
QIANFAN-67              
1 62797U 25016N   25251.21986292  .00000080  00000+0  10484-3 0  9996
2 62797  88.9779 112.9301 0013163 262.6427  97.3228 13.50964291 34368
QIANFAN-68              
1 62798U 25016P   25251.22397787  .00000099  00000+0  13498-3 0  9991
2 62798  88.9782 112.9742 0013807 260.5569  99.4022 13.50962203 34345
QIANFAN-69              
1 62799U 25016Q   25251.22815093  .00000096  00000+0  13021-3 0  9996
2 62799  88.9761 112.8609 0013962 261.7762  98.1806 13.50964501 34387
QIANFAN-70              
1 62800U 25016R   25251.24459260  .00000119  00000+0  16588-3 0  9998
2 62800  88.9782 112.9774 0013552 250.7616 109.2070 13.50968607 34342
QIANFAN-71              
1 62801U 25016S   25251.24055694  .00000108  00000+0  14964-3 0  9996
2 62801  88.9776 112.9633 0013887 265.7581  94.1984 13.50968132 34347
QIANFAN-72              
1 62802U 25016T   25251.23639683  .00000109  00000+0  15015-3 0  9991
2 62802  88.9766 112.9814 0017351 272.6869  87.2296 13.50963599 34334
